ORBCOMM FM37            
1 33064U 08031E   25031.97301623  .00003177  00000+0  45505-3 0  9999
2 33064  48.4383 270.8178 0005958 151.0959 222.8235 14.78847525893889
ORBCOMM FM40            
1 33065U 08031F   25032.55886308  .00004533  00000+0  60795-3 0  9998
2 33065  48.4399 254.2249 0007510 165.1494 231.4067 14.80838694894057
VESSELSAT 1             
1 37840U 11058C   25032.56382534  .00000505  00000+0  13086-3 0  9995
2 37840  19.9596 194.5191 0013695 134.4073 225.7453 14.11302671687127
ORBCOMM FM109           
1 40086U 14040A   25032.09030856  .00001691  00000+0  40315-3 0  9992
2 40086  47.0033 298.8823 0001374  63.4124 296.6902 14.57754725561207
ORBCOMM FM107           
1 40087U 14040B   25032.19335544  .00001712  00000+0  40717-3 0  9996
2 40087  47.0060 299.4053 0001325   4.0628 356.0268 14.57817779561290
ORBCOMM FM106           
1 40088U 14040C   25032.28984791  .00003092  00000+0  55469-3 0  9994
2 40088  47.0593 131.8491 0016837 160.1459 200.0090 14.68815247563492
ORBCOMM FM111           
1 40089U 14040D   25032.31546045  .00006601  00000+0  78292-3 0  9993
2 40089  47.0035 359.9238 0031007 263.7528  95.9836 14.84991820570025
ORBCOMM FM104           
1 40090U 14040E   25032.24028338  .00001793  00000+0  43845-3 0  9990
2 40090  47.0066 331.1787 0017160 303.9542  55.9712 14.56269460560800
